{"fetched_at":"2026-07-07T18:29:19.519Z","source":"https://celestrak.org/NORAD/elements/gp.php?NAME=CAPELLA&FORMAT=JSON","constellation":"capella","records":[{"OBJECT_NAME":"CAPELLA-11 (ACADIA-1)","OBJECT_ID":"2023-126A","EPOCH":"2026-07-07T04:15:44.857728","CLASSIFICATION_TYPE":"U","MEAN_MOTION":14.84607915,"ECCENTRICITY":0.0002116,"INCLINATION":53.0059,"RA_OF_ASC_NODE":98.1326,"ARG_OF_PERICENTER":116.8038,"MEAN_ANOMALY":243.3157,"EPHEMERIS_TYPE":0,"NORAD_CAT_ID":57693,"ELEMENT_SET_NO":999,"REV_AT_EPOCH":15509,"BSTAR":0.00041589,"MEAN_MOTION_DOT":0.00003317,"MEAN_MOTION_DDOT":0},{"OBJECT_NAME":"CAPELLA-14 (ACADIA-4)","OBJECT_ID":"2024-066C","EPOCH":"2026-07-07T06:58:23.617632","CLASSIFICATION_TYPE":"U","MEAN_MOTION":15.09659639,"ECCENTRICITY":0.0001667,"INCLINATION":45.602,"RA_OF_ASC_NODE":149.3449,"ARG_OF_PERICENTER":169.4152,"MEAN_ANOMALY":190.6769,"EPHEMERIS_TYPE":0,"NORAD_CAT_ID":59444,"ELEMENT_SET_NO":999,"REV_AT_EPOCH":11552,"BSTAR":0.00060539,"MEAN_MOTION_DOT":0.00009658,"MEAN_MOTION_DDOT":0},{"OBJECT_NAME":"CAPELLA-13 (ACADIA-3)","OBJECT_ID":"2024-142A","EPOCH":"2026-07-07T12:32:28.191264","CLASSIFICATION_TYPE":"U","MEAN_MOTION":14.8765703,"ECCENTRICITY":0.0001247,"INCLINATION":53.0055,"RA_OF_ASC_NODE":328.8036,"ARG_OF_PERICENTER":93.5002,"MEAN_ANOMALY":266.6121,"EPHEMERIS_TYPE":0,"NORAD_CAT_ID":60419,"ELEMENT_SET_NO":999,"REV_AT_EPOCH":10343,"BSTAR":0.00035591,"MEAN_MOTION_DOT":0.00003035,"MEAN_MOTION_DDOT":0},{"OBJECT_NAME":"CAPELLA-15 (ACADIA-5)","OBJECT_ID":"2024-149CE","EPOCH":"2026-07-07T04:02:49.651872","CLASSIFICATION_TYPE":"U","MEAN_MOTION":14.92383555,"ECCENTRICITY":0.0003959,"INCLINATION":97.6756,"RA_OF_ASC_NODE":260.5704,"ARG_OF_PERICENTER":14.9443,"MEAN_ANOMALY":345.1892,"EPHEMERIS_TYPE":0,"NORAD_CAT_ID":60544,"ELEMENT_SET_NO":999,"REV_AT_EPOCH":10283,"BSTAR":0.00024888,"MEAN_MOTION_DOT":0.00002492,"MEAN_MOTION_DDOT":0},{"OBJECT_NAME":"CAPELLA-17 (ACADIA-7)","OBJECT_ID":"2025-135BH","EPOCH":"2026-07-06T20:40:04.967040","CLASSIFICATION_TYPE":"U","MEAN_MOTION":14.91559067,"ECCENTRICITY":0.0003748,"INCLINATION":97.7698,"RA_OF_ASC_NODE":301.1922,"ARG_OF_PERICENTER":287.3419,"MEAN_ANOMALY":72.7389,"EPHEMERIS_TYPE":0,"NORAD_CAT_ID":64583,"ELEMENT_SET_NO":999,"REV_AT_EPOCH":5678,"BSTAR":0.00053205,"MEAN_MOTION_DOT":0.0000528,"MEAN_MOTION_DDOT":0},{"OBJECT_NAME":"CAPELLA-16 (ACADIA-6)","OBJECT_ID":"2025-188D","EPOCH":"2026-07-06T17:10:04.505088","CLASSIFICATION_TYPE":"U","MEAN_MOTION":14.93988981,"ECCENTRICITY":0.0005066,"INCLINATION":97.7376,"RA_OF_ASC_NODE":262.5747,"ARG_OF_PERICENTER":157.1281,"MEAN_ANOMALY":203.0166,"EPHEMERIS_TYPE":0,"NORAD_CAT_ID":65318,"ELEMENT_SET_NO":999,"REV_AT_EPOCH":4683,"BSTAR":0.00039198,"MEAN_MOTION_DOT":0.00004122,"MEAN_MOTION_DDOT":0},{"OBJECT_NAME":"CAPELLA-19 (ACADIA-9)","OBJECT_ID":"2026-004X","EPOCH":"2026-07-06T23:41:29.575104","CLASSIFICATION_TYPE":"U","MEAN_MOTION":14.86641894,"ECCENTRICITY":0.0001897,"INCLINATION":97.7975,"RA_OF_ASC_NODE":186.0054,"ARG_OF_PERICENTER":95.2342,"MEAN_ANOMALY":264.9091,"EPHEMERIS_TYPE":0,"NORAD_CAT_ID":67384,"ELEMENT_SET_NO":999,"REV_AT_EPOCH":2621,"BSTAR":0.00042122,"MEAN_MOTION_DOT":0.00003686,"MEAN_MOTION_DDOT":0},{"OBJECT_NAME":"CAPELLA-18 (ACADIA-8)","OBJECT_ID":"2026-004Y","EPOCH":"2026-07-07T11:14:24.046368","CLASSIFICATION_TYPE":"U","MEAN_MOTION":14.86636226,"ECCENTRICITY":0.0001548,"INCLINATION":97.8013,"RA_OF_ASC_NODE":186.6279,"ARG_OF_PERICENTER":86.8414,"MEAN_ANOMALY":273.2979,"EPHEMERIS_TYPE":0,"NORAD_CAT_ID":67385,"ELEMENT_SET_NO":999,"REV_AT_EPOCH":2629,"BSTAR":0.00012493,"MEAN_MOTION_DOT":0.00001055,"MEAN_MOTION_DDOT":0},{"OBJECT_NAME":"CAPELLA-20 (ACADIA-10)","OBJECT_ID":"2026-067BX","EPOCH":"2026-07-07T08:24:22.268736","CLASSIFICATION_TYPE":"U","MEAN_MOTION":14.9178552,"ECCENTRICITY":0.0000999,"INCLINATION":97.7578,"RA_OF_ASC_NODE":146.3226,"ARG_OF_PERICENTER":158.4025,"MEAN_ANOMALY":201.7236,"EPHEMERIS_TYPE":0,"NORAD_CAT_ID":68485,"ELEMENT_SET_NO":999,"REV_AT_EPOCH":1473,"BSTAR":0.00043142,"MEAN_MOTION_DOT":0.00004295,"MEAN_MOTION_DDOT":0}]}
